0 LILACSAT 2
1 40908U 15049K   23076.01894696  .00009889  00000-0  48269-3 0  9997
2 40908  97.5264  79.4145 0015614 144.9265 281.6946 15.18378508413802
0 XW-2E
1 40909U 15049L   23075.99383230  .00040517  00000-0  12853-2 0  9993
2 40909  97.4609  88.7675 0012455  92.3968 323.0920 15.32498774414990
0 OBJECT C
1 54684U 22167C   23075.96791606  .00020032  00000-0  11856-2 0  9996
2 54684  97.5449 214.4214 0013773 291.4765 217.4244 15.11385263 14734
0 XW-3 (CAS 9)
1 50466U 21131B   23075.95975786  .00001213  00000-0  40925-3 0  9992
2 50466  98.5555 157.7934 0005308  67.7469 292.4280 14.38752960 64092
0 TEVEL 7
1 51062U 22002CG  23075.93070484  .00029359  00000-0  13212-2 0  9991
2 51062  97.4442 143.7625 0008907 189.6488 342.5955 15.21010756 64711
0 AO-95
1 43770U 18099N   23075.92688359  .00008703  00000-0  72635-3 0  9999
2 43770  97.5850 139.9682 0015514  83.5136 276.7853 14.98701537233783
0 NAYIF 1
1 42017U 17008BX  23075.92117197  .00088474  00000-0  13528-2 0  9996
2 42017  97.2264 144.9690 0001822 333.4896  26.6265 15.54087234339032
0 DIWATA 2B
1 43678U 18084H   23075.91720054  .00003535  00000-0  34531-3 0  9999
2 43678  98.0046 218.1326 0010634 103.9221 256.3155 14.93019300238495
0 TEVEL 8
1 50989U 22002F   23075.91311463  .00029276  00000-0  13178-2 0  9990
2 50989  97.4453 143.7687 0009248 188.8299 257.0328 15.21000284 64717
0 TEVEL 4
1 51063U 22002CH  23075.91260251  .00029175  00000-0  13145-2 0  9994
2 51063  97.4449 143.7349 0008900 189.8143 224.6719 15.20973108 64711
0 UVSQ-SAT
1 47438U 21006AB  23075.91236992  .00019903  00000-0  89183-3 0  9997
2 47438  97.3978 134.4916 0011139  53.0647 307.1607 15.21218859118601
0 TEVEL 1
1 51013U 22002AF  23075.91072728  .00029188  00000-0  13131-2 0  9998
2 51013  97.4440 143.6755 0008710 189.1757 285.5887 15.21025226 64712
0 TEVEL 2
1 51069U 22002CP  23075.90538845  .00029195  00000-0  13120-2 0  9991
2 51069  97.4439 143.6889 0008860 189.7230 285.5364 15.21060871 64712
0 TEVEL 3
1 50988U 22002E   23075.90354183  .00029255  00000-0  13147-2 0  9997
2 50988  97.4445 143.7127 0008780 189.4663 285.9738 15.21060455 64719
0 ZHUHAI-1 01
1 42761U 17034D   23075.89529975  .00014134  00000-0  74103-3 0  9997
2 42761  43.0172 266.6277 0011534 233.4008 269.3546 15.15569586317635
0 TEVEL 5
1 50998U 22002Q   23075.89408900  .00030226  00000-0  13313-2 0  9998
2 50998  97.4439 143.9907 0010266 185.1182 292.9939 15.21728339 64737
0 TEVEL 6
1 50999U 22002R   23075.89275465  .00030217  00000-0  13307-2 0  9990
2 50999  97.4440 143.9854 0010310 184.8402 293.3245 15.21734149 64733
0 BREEZE-KM R/B
1 44909U 19096E   23075.89033350  .00000039  00000-0  10810-3 0  9994
2 44909  82.5209  49.2646 0218339  42.9882 318.8049 12.79719116150355
0 FUNCUBE 1
1 39444U 13066AE  23075.88936799  .00006067  00000-0  68922-3 0  9995
2 39444  97.6609  43.3803 0052876 215.4659 144.3038 14.85614186501939
0 CSS (TIANHE-1)
1 48274U 21035A   23075.87693920  .00036529  00000-0  39997-3 0  9992
2 48274  41.4758 358.9577 0001568 157.8055 271.0341 15.62543421107392
0 ZHUHAI-1 02
1 42759U 17034B   23075.87526576  .00013161  00000-0  69257-3 0  9999
2 42759  43.0170 268.1725 0011333 229.5388 266.2930 15.15488591317627
0 ISS (ZARYA)
1 25544U 98067A   23075.87043874  .00021660  00000-0  39718-3 0  9994
2 25544  51.6402  65.8762 0006024  98.8281 339.9669 15.49206000387473
0 EYESAT A
1 22825U 93061C   23075.86670885  .00000240  00000-0  11043-3 0  9991
2 22825  98.8544 117.2144 0008026 344.7769  15.3170 14.30265615537369
0 XW-2C
1 40906U 15049H   23075.86566616  .00019657  00000-0  81565-3 0  9995
2 40906  97.4976  82.8477 0014395 121.8368 323.3867 15.23800032414320
0 XW-2D
1 40907U 15049J   23075.86276935  .00023251  00000-0  92406-3 0  9999
2 40907  97.4964  83.1611 0013703 115.9248   5.0214 15.25223209414399
0 ES'HAIL 2
1 43700U 18090A   23075.84962383  .00000135  00000-0  00000-0 0  9991
2 43700   0.0183 152.7359 0001061 221.8949 131.1773  1.00272991 15766
0 XW-2B
1 40911U 15049N   23075.84644874  .00022892  00000-0  91481-3 0  9995
2 40911  97.4946  83.6351 0013715 117.4306   3.7458 15.25042308414276
0 XW-2F
1 40910U 15049M   23075.83600900  .00040267  00000-0  13011-2 0  9993
2 40910  97.4702  87.8210 0013518  94.5169  29.0442 15.31896095414729
0 XW-2A
1 40903U 15049E   23075.82625567  .00259080  00000-0  10997-2 0  9995
2 40903  97.1293 142.6757 0006877 184.6343 287.7558 15.84616960421799
0 NEXUS
1 43937U 19003F   23075.79445513  .00048327  00000-0  10875-2 0  9991
2 43937  97.1012 104.7234 0013637 247.7845 112.1958 15.43058586231756
0 OSCAR 7
1 07530U 74089B   23075.79167918 -.00000012  00000-0  21150-3 0  9994
2 07530 101.9414  61.8671 0011923 239.8270 241.6951 12.53662301211598
0 JAS 2
1 24278U 96046B   23075.76253876  .00000040  00000-0  79850-4 0  9996
2 24278  98.5219  66.9410 0349264 296.7555  59.8245 13.53138374312436
0 SAUDISAT 1C
1 27607U 02058C   23075.75330632  .00003395  00000-0  47806-3 0  9991
2 27607  64.5557 188.2478 0076272 242.9459 116.3847 14.76948955 88579
0 JY1SAT
1 43803U 18099AX  23075.40676502  .00011702  00000-0  95252-3 0  9999
2 43803  97.5867 140.4001 0016023  73.1481 287.1499 14.99580660233789
0 AO-92
1 43137U 18004AC  23075.19060641  .00050190  00000-0  12842-2 0  9999
2 43137  97.3360 153.8054 0007532 118.1255 242.0753 15.39231658287973
0 AO-91
1 43017U 17073E   23075.15903584  .00016826  00000-0  11945-2 0  9990
2 43017  97.6441 323.1911 0238893  16.5236 344.3595 14.84556507287379
0 MT-CUBE-2
1 53106U 22080B   23075.13340333 -.00000003  00000-0  00000+0 0  9997
2 53106  70.1817 352.0525 0008319 207.8404 152.1811  6.42557089 15774
0 LAPAN A2
1 40931U 15052B   23075.05277511  .00001938  00000-0  17876-3 0  9998
2 40931   5.9970  31.3109 0012989  51.3345 308.7956 14.77099262403569
0 XW-4 (CAS-10)
1 54816U 21035C   23072.25043904  .02330371  77621-5  12756-2 0  9996
2 54816  41.5077   9.4914 0017840 162.4710 197.7314 16.18206266 13316
